COSMOS 2242             
1 22626U 93024A   26092.17063093  .00003538  00000+0  30736-3 0  9994
2 22626  82.5170 244.2503 0015348 222.7954 137.2074 14.96656591783908
SL-16 R/B               
1 22803U 93059B   26092.12158919 -.00000042  00000+0  28597-5 0  9998
2 22803  70.9909 321.7162 0017181 182.0868 178.0187 14.17234539682854
ARIANE 40 R/B           
1 22830U 93061H   26092.16153700  .00000306  00000+0  12778-3 0  9992
2 22830  98.4873 160.5811 0010240 208.9210 151.1407 14.32873932697460
COSMOS 2278             
1 23087U 94023A   26092.14868774 -.00000081  00000+0 -17564-4 0  9999
2 23087  71.0507 126.0194 0009286 338.1957  21.8769 14.14374681648129
SL-16 R/B               
1 23088U 94023B   26092.18460298  .00000255  00000+0  15606-3 0  9998
2 23088  71.0029  21.5442 0005540 264.7235  95.3255 14.15018492649411
SL-16 R/B               
1 23343U 94074B   26092.05860517  .00000550  00000+0  80283-4 0  9994
2 23343  97.7073 121.9265 0007566 136.3211 277.5137 14.79434737690700
SL-16 R/B               
1 23405U 94077B   26092.01570474 -.00000182  00000+0 -68668-4 0  9998
2 23405  70.9826 303.4171 0001707 193.2014 166.9064 14.15568586619537
ARIANE 40+ R/B          
1 23561U 95021B   26092.16110677  .00000329  00000+0  11884-3 0  9990
2 23561  98.4456 163.3209 0007862  76.0845 313.4670 14.39789341622623
SL-16 R/B               
1 23705U 95058B   26092.16516894 -.00000128  00000+0 -41372-4 0  9996
2 23705  71.0194 130.9714 0010237  82.6049 277.6237 14.15498013571179
SL-16 R/B               
1 24298U 96051B   26092.11202138  .00000141  00000+0  10303-3 0  9998
2 24298  70.7582 125.6644 0013228 109.7538 250.5009 14.12422688524957
ORBVIEW 2 (SEASTAR)     
1 24883U 97037A   26092.18615232  .00000409  00000+0  15835-3 0  9995
2 24883  98.8607 257.1256 0002180  19.0595 341.0671 14.35512042511841
SL-16 R/B               
1 25400U 98043G   26092.09594369  .00000079  00000+0  52249-4 0  9990
2 25400  98.8295  45.6310 0009031 311.1745  48.8655 14.26055310442326
