CCSDS_OMM_VERS = 2.0
CREATION_DATE  = 
ORIGINATOR     = 

OBJECT_NAME    = COSMOS 2242
OBJECT_ID      = 1993-024A
CENTER_NAME    = EARTH
REF_FRAME      = TEME
TIME_SYSTEM    = UTC
MEAN_ELEMENT_THEORY = SGP/SGP4

EPOCH          = 2026-04-02T04:05:42.512352
MEAN_MOTION    = 14.96656591
ECCENTRICITY   = .0015348
INCLINATION    = 82.5170
RA_OF_ASC_NODE = 244.2503
ARG_OF_PERICENTER = 222.7954
MEAN_ANOMALY   = 137.2074

EPHEMERIS_TYPE = 0
CLASSIFICATION_TYPE = U
NORAD_CAT_ID   = 22626
ELEMENT_SET_NO = 999
REV_AT_EPOCH   = 78390
BSTAR          = .30736E-3
MEAN_MOTION_DOT = .3538E-4
MEAN_MOTION_DDOT = 0

CCSDS_OMM_VERS = 2.0
CREATION_DATE  = 
ORIGINATOR     = 

OBJECT_NAME    = SL-16 R/B
OBJECT_ID      = 1993-059B
CENTER_NAME    = EARTH
REF_FRAME      = TEME
TIME_SYSTEM    = UTC
MEAN_ELEMENT_THEORY = SGP/SGP4

EPOCH          = 2026-04-02T02:55:05.306016
MEAN_MOTION    = 14.17234539
ECCENTRICITY   = .0017181
INCLINATION    = 70.9909
RA_OF_ASC_NODE = 321.7162
ARG_OF_PERICENTER = 182.0868
MEAN_ANOMALY   = 178.0187

EPHEMERIS_TYPE = 0
CLASSIFICATION_TYPE = U
NORAD_CAT_ID   = 22803
ELEMENT_SET_NO = 999
REV_AT_EPOCH   = 68285
BSTAR          = .28597E-5
MEAN_MOTION_DOT = -.42E-6
MEAN_MOTION_DDOT = 0

CCSDS_OMM_VERS = 2.0
CREATION_DATE  = 
ORIGINATOR     = 

OBJECT_NAME    = ARIANE 40 R/B
OBJECT_ID      = 1993-061H
CENTER_NAME    = EARTH
REF_FRAME      = TEME
TIME_SYSTEM    = UTC
MEAN_ELEMENT_THEORY = SGP/SGP4

EPOCH          = 2026-04-02T03:52:36.796800
MEAN_MOTION    = 14.32873932
ECCENTRICITY   = .001024
INCLINATION    = 98.4873
RA_OF_ASC_NODE = 160.5811
ARG_OF_PERICENTER = 208.9210
MEAN_ANOMALY   = 151.1407

EPHEMERIS_TYPE = 0
CLASSIFICATION_TYPE = U
NORAD_CAT_ID   = 22830
ELEMENT_SET_NO = 999
REV_AT_EPOCH   = 69746
BSTAR          = .12778E-3
MEAN_MOTION_DOT = .306E-5
MEAN_MOTION_DDOT = 0

CCSDS_OMM_VERS = 2.0
CREATION_DATE  = 
ORIGINATOR     = 

OBJECT_NAME    = COSMOS 2278
OBJECT_ID      = 1994-023A
CENTER_NAME    = EARTH
REF_FRAME      = TEME
TIME_SYSTEM    = UTC
MEAN_ELEMENT_THEORY = SGP/SGP4

EPOCH          = 2026-04-02T03:34:06.620736
MEAN_MOTION    = 14.14374681
ECCENTRICITY   = .0009286
INCLINATION    = 71.0507
RA_OF_ASC_NODE = 126.0194
ARG_OF_PERICENTER = 338.1957
MEAN_ANOMALY   = 21.8769

EPHEMERIS_TYPE = 0
CLASSIFICATION_TYPE = U
NORAD_CAT_ID   = 23087
ELEMENT_SET_NO = 999
REV_AT_EPOCH   = 64812
BSTAR          = -.17564E-4
MEAN_MOTION_DOT = -.81E-6
MEAN_MOTION_DDOT = 0

CCSDS_OMM_VERS = 2.0
CREATION_DATE  = 
ORIGINATOR     = 

OBJECT_NAME    = SL-16 R/B
OBJECT_ID      = 1994-023B
CENTER_NAME    = EARTH
REF_FRAME      = TEME
TIME_SYSTEM    = UTC
MEAN_ELEMENT_THEORY = SGP/SGP4

EPOCH          = 2026-04-02T04:25:49.697472
MEAN_MOTION    = 14.15018492
ECCENTRICITY   = .000554
INCLINATION    = 71.0029
RA_OF_ASC_NODE = 21.5442
ARG_OF_PERICENTER = 264.7235
MEAN_ANOMALY   = 95.3255

EPHEMERIS_TYPE = 0
CLASSIFICATION_TYPE = U
NORAD_CAT_ID   = 23088
ELEMENT_SET_NO = 999
REV_AT_EPOCH   = 64941
BSTAR          = .15606E-3
MEAN_MOTION_DOT = .255E-5
MEAN_MOTION_DDOT = 0

CCSDS_OMM_VERS = 2.0
CREATION_DATE  = 
ORIGINATOR     = 

OBJECT_NAME    = SL-16 R/B
OBJECT_ID      = 1994-074B
CENTER_NAME    = EARTH
REF_FRAME      = TEME
TIME_SYSTEM    = UTC
MEAN_ELEMENT_THEORY = SGP/SGP4

EPOCH          = 2026-04-02T01:24:23.486688
MEAN_MOTION    = 14.79434737
ECCENTRICITY   = .0007566
INCLINATION    = 97.7073
RA_OF_ASC_NODE = 121.9265
ARG_OF_PERICENTER = 136.3211
MEAN_ANOMALY   = 277.5137

EPHEMERIS_TYPE = 0
CLASSIFICATION_TYPE = U
NORAD_CAT_ID   = 23343
ELEMENT_SET_NO = 999
REV_AT_EPOCH   = 69070
BSTAR          = .80283E-4
MEAN_MOTION_DOT = .55E-5
MEAN_MOTION_DDOT = 0

CCSDS_OMM_VERS = 2.0
CREATION_DATE  = 
ORIGINATOR     = 

OBJECT_NAME    = SL-16 R/B
OBJECT_ID      = 1994-077B
CENTER_NAME    = EARTH
REF_FRAME      = TEME
TIME_SYSTEM    = UTC
MEAN_ELEMENT_THEORY = SGP/SGP4

EPOCH          = 2026-04-02T00:22:36.889536
MEAN_MOTION    = 14.15568586
ECCENTRICITY   = .0001707
INCLINATION    = 70.9826
RA_OF_ASC_NODE = 303.4171
ARG_OF_PERICENTER = 193.2014
MEAN_ANOMALY   = 166.9064

EPHEMERIS_TYPE = 0
CLASSIFICATION_TYPE = U
NORAD_CAT_ID   = 23405
ELEMENT_SET_NO = 999
REV_AT_EPOCH   = 61953
BSTAR          = -.68668E-4
MEAN_MOTION_DOT = -.182E-5
MEAN_MOTION_DDOT = 0

CCSDS_OMM_VERS = 2.0
CREATION_DATE  = 
ORIGINATOR     = 

OBJECT_NAME    = ARIANE 40+ R/B
OBJECT_ID      = 1995-021B
CENTER_NAME    = EARTH
REF_FRAME      = TEME
TIME_SYSTEM    = UTC
MEAN_ELEMENT_THEORY = SGP/SGP4

EPOCH          = 2026-04-02T03:51:59.624928
MEAN_MOTION    = 14.39789341
ECCENTRICITY   = .0007862
INCLINATION    = 98.4456
RA_OF_ASC_NODE = 163.3209
ARG_OF_PERICENTER = 76.0845
MEAN_ANOMALY   = 313.4670

EPHEMERIS_TYPE = 0
CLASSIFICATION_TYPE = U
NORAD_CAT_ID   = 23561
ELEMENT_SET_NO = 999
REV_AT_EPOCH   = 62262
BSTAR          = .11884E-3
MEAN_MOTION_DOT = .329E-5
MEAN_MOTION_DDOT = 0

CCSDS_OMM_VERS = 2.0
CREATION_DATE  = 
ORIGINATOR     = 

OBJECT_NAME    = SL-16 R/B
OBJECT_ID      = 1995-058B
CENTER_NAME    = EARTH
REF_FRAME      = TEME
TIME_SYSTEM    = UTC
MEAN_ELEMENT_THEORY = SGP/SGP4

EPOCH          = 2026-04-02T03:57:50.596416
MEAN_MOTION    = 14.15498013
ECCENTRICITY   = .0010237
INCLINATION    = 71.0194
RA_OF_ASC_NODE = 130.9714
ARG_OF_PERICENTER = 82.6049
MEAN_ANOMALY   = 277.6237

EPHEMERIS_TYPE = 0
CLASSIFICATION_TYPE = U
NORAD_CAT_ID   = 23705
ELEMENT_SET_NO = 999
REV_AT_EPOCH   = 57117
BSTAR          = -.41372E-4
MEAN_MOTION_DOT = -.128E-5
MEAN_MOTION_DDOT = 0

CCSDS_OMM_VERS = 2.0
CREATION_DATE  = 
ORIGINATOR     = 

OBJECT_NAME    = SL-16 R/B
OBJECT_ID      = 1996-051B
CENTER_NAME    = EARTH
REF_FRAME      = TEME
TIME_SYSTEM    = UTC
MEAN_ELEMENT_THEORY = SGP/SGP4

EPOCH          = 2026-04-02T02:41:18.647232
MEAN_MOTION    = 14.12422688
ECCENTRICITY   = .0013228
INCLINATION    = 70.7582
RA_OF_ASC_NODE = 125.6644
ARG_OF_PERICENTER = 109.7538
MEAN_ANOMALY   = 250.5009

EPHEMERIS_TYPE = 0
CLASSIFICATION_TYPE = U
NORAD_CAT_ID   = 24298
ELEMENT_SET_NO = 999
REV_AT_EPOCH   = 52495
BSTAR          = .10303E-3
MEAN_MOTION_DOT = .141E-5
MEAN_MOTION_DDOT = 0

CCSDS_OMM_VERS = 2.0
CREATION_DATE  = 
ORIGINATOR     = 

OBJECT_NAME    = ORBVIEW 2 (SEASTAR)
OBJECT_ID      = 1997-037A
CENTER_NAME    = EARTH
REF_FRAME      = TEME
TIME_SYSTEM    = UTC
MEAN_ELEMENT_THEORY = SGP/SGP4

EPOCH          = 2026-04-02T04:28:03.560448
MEAN_MOTION    = 14.35512042
ECCENTRICITY   = .000218
INCLINATION    = 98.8607
RA_OF_ASC_NODE = 257.1256
ARG_OF_PERICENTER = 19.0595
MEAN_ANOMALY   = 341.0671

EPHEMERIS_TYPE = 0
CLASSIFICATION_TYPE = U
NORAD_CAT_ID   = 24883
ELEMENT_SET_NO = 999
REV_AT_EPOCH   = 51184
BSTAR          = .15835E-3
MEAN_MOTION_DOT = .409E-5
MEAN_MOTION_DDOT = 0

CCSDS_OMM_VERS = 2.0
CREATION_DATE  = 
ORIGINATOR     = 

OBJECT_NAME    = SL-16 R/B
OBJECT_ID      = 1998-043G
CENTER_NAME    = EARTH
REF_FRAME      = TEME
TIME_SYSTEM    = UTC
MEAN_ELEMENT_THEORY = SGP/SGP4

EPOCH          = 2026-04-02T02:18:09.534816
MEAN_MOTION    = 14.26055310
ECCENTRICITY   = .0009031
INCLINATION    = 98.8295
RA_OF_ASC_NODE = 45.6310
ARG_OF_PERICENTER = 311.1745
MEAN_ANOMALY   = 48.8655

EPHEMERIS_TYPE = 0
CLASSIFICATION_TYPE = U
NORAD_CAT_ID   = 25400
ELEMENT_SET_NO = 999
REV_AT_EPOCH   = 44232
BSTAR          = .52249E-4
MEAN_MOTION_DOT = .79E-6
MEAN_MOTION_DDOT = 0

